{
  "norad_id": 53792,
  "name": "STARLINK-4739",
  "history": [
    {
      "epoch": "2026-03-28T17:13:42.297888Z",
      "apogee_km": 540.708299793343,
      "perigee_km": 538.7794562469335,
      "latitude_deg": 1.202314530971113e-06,
      "longitude_deg": 104.49297793185092,
      "height_km": 540.7432669617814,
      "semi_major_axis_km": 6917.880878020138,
      "eccentricity": 0.00013941,
      "inclination_deg": 53.2175,
      "raan_deg": 189.0535,
      "arg_perigee_deg": 96.1733,
      "mean_anomaly_deg": 263.9418,
      "mean_motion_rev_day": 15.0883984
    }
  ]
}